[{"OBJECT_NAME":"STARLINK-31821","OBJECT_ID":"2024-090H","EPOCH":"2026-03-09T07:50:08.583936","MEAN_MOTION":15.27581297,"ECCENTRICITY":5.977e-5,"INCLINATION":42.9977,"RA_OF_ASC_NODE":185.6308,"ARG_OF_PERICENTER":125.4469,"MEAN_ANOMALY":234.6438,"EPHEMERIS_TYPE":0,"CLASSIFICATION_TYPE":"U","NORAD_CAT_ID":59737,"ELEMENT_SET_NO":999,"REV_AT_EPOCH":10338,"BSTAR":-6.1103514e-5,"MEAN_MOTION_DOT":-1.943e-5,"MEAN_MOTION_DDOT":0},{"OBJECT_NAME":"USA 40 R\/B DEB","OBJECT_ID":"1989-061BX","EPOCH":"2026-03-08T03:59:26.617920","MEAN_MOTION":9.34911451,"ECCENTRICITY":0.28222994,"INCLINATION":57.0206,"RA_OF_ASC_NODE":2.9696,"ARG_OF_PERICENTER":173.1457,"MEAN_ANOMALY":191.8496,"EPHEMERIS_TYPE":0,"CLASSIFICATION_TYPE":"U","NORAD_CAT_ID":44524,"ELEMENT_SET_NO":999,"REV_AT_EPOCH":19674,"BSTAR":0.0049845599,"MEAN_MOTION_DOT":0.00012255,"MEAN_MOTION_DDOT":0}]
